NORAD_CAT_ID,OBJECT_NAME,OBJECT_TYPE,EPOCH,MEAN_MOTION,ECCENTRICITY,INCLINATION,RA_OF_ASC_NODE,ARG_OF_PERICENTER,MEAN_ANOMALY,BSTAR,MEAN_MOTION_DOT,MEAN_MOTION_DDOT,TLE_LINE0,TLE_LINE1,TLE_LINE2,SEMIMAJOR_AXIS,PERIOD,APOGEE,PERIGEE,DECAYED
55664.0,STARLINK-5480,PAYLOAD,2023-03-05 22:00:00,15.70892817,0.0003623,69.9939,104.5303,269.0082,139.4554,-0.0080232,-0.00903069,0.0,0 STARLINK-5480,1 55664U 23021AN  23064.91667824 -.00903069  00000-0 -80232-2 0  9998,2 55664  69.9939 104.5303 0003623 269.0082 139.4554 15.70892817  1303,6734.481,91.668,358.786,353.906,0.0
55664.0,STARLINK-5480,PAYLOAD,2023-03-06 06:00:00,15.70030154,0.0003623,69.9947,103.592,270.1004,222.4949,-0.0016231,-0.00191846,0.0,0 STARLINK-5480,1 55664U 23021AN  23065.25001157 -.00191846  00000-0 -16231-2 0  9997,2 55664  69.9947 103.5920 0003623 270.1004 222.4949 15.70030154  3135,6736.948,91.718,361.254,356.372,0.0
55664.0,STARLINK-5480,PAYLOAD,2023-03-06 14:00:01,15.69927311,0.0003497,69.995,102.6545,272.8213,303.147,8.3076e-05,9.789e-05,0.0,0 STARLINK-5480,1 55664U 23021AN  23065.58334491  .00009789  00000-0  83076-4 0  9998,2 55664  69.9950 102.6545 0003497 272.8213 303.1470 15.69927311  3181,6737.242,91.724,361.463,356.751,0.0
55664.0,STARLINK-5480,PAYLOAD,2023-03-06 22:00:00,15.69861331,0.0003436,69.9962,101.7172,265.6356,33.7027,0.00088955,0.00107854,0.0,0 STARLINK-5480,1 55664U 23021AN  23065.91667824  .00107854  00000-0  88955-3 0  9996,2 55664  69.9962 101.7172 0003436 265.6356  33.7027 15.69861331  1306,6737.431,91.728,361.611,356.981,0.0
55664.0,STARLINK-5480,PAYLOAD,2023-03-07 06:00:00,15.69956759,0.000353,69.9969,100.7801,268.025,114.6096,-0.00078295,-0.00093447,0.0,0 STARLINK-5480,1 55664U 23021AN  23066.25001157 -.00093447  00000-0 -78295-3 0  9995,2 55664  69.9969 100.7801 0003530 268.0250 114.6096 15.69956759  3290,6737.158,91.722,361.401,356.644,0.0
55664.0,STARLINK-5480,PAYLOAD,2023-03-07 14:00:01,15.69922696,0.0003496,69.9972,99.8424,273.7541,192.2214,0.00010864,0.0001287,0.0,0 STARLINK-5480,1 55664U 23021AN  23066.58334491  .00012870  00000-0  10864-3 0  9998,2 55664  69.9972  99.8424 0003496 273.7541 192.2214 15.69922696  3343,6737.255,91.724,361.476,356.765,0.0
55664.0,STARLINK-5480,PAYLOAD,2023-03-07 22:00:00,15.69901966,0.0003525,69.9985,98.9048,266.8726,282.4589,0.00028338,0.00033969,0.0,0 STARLINK-5480,1 55664U 23021AN  23066.91667824  .00033969  00000-0  28338-3 0  9991,2 55664  69.9985  98.9048 0003525 266.8726 282.4589 15.69901966  1308,6737.314,91.725,361.554,356.805,0.0
55664.0,STARLINK-5480,PAYLOAD,2023-03-08 06:00:00,15.69906216,0.0003479,70.0001,97.9674,271.0582,1.5944,5.6442e-05,6.574e-05,0.0,0 STARLINK-5480,1 55664U 23021AN  23067.25001157  .00006574  00000-0  56442-4 0  9990,2 55664  70.0001  97.9674 0003479 271.0582   1.5944 15.69906216  3445,6737.302,91.725,361.511,356.823,0.0
55664.0,STARLINK-5480,PAYLOAD,2023-03-08 14:00:01,15.69977038,0.0003443,70.0003,97.0302,274.2008,81.7643,-0.00048436,-0.0005818,0.0,0 STARLINK-5480,1 55664U 23021AN  23067.58334491 -.00058180  00000-0 -48436-3 0  9991,2 55664  70.0003  97.0302 0003443 274.2008  81.7643 15.69977038  3496,6737.1,91.721,361.284,356.645,0.0
55664.0,STARLINK-5480,PAYLOAD,2023-03-08 22:00:00,15.69840331,0.0003404,70.0005,96.0932,262.1717,177.199,0.0011197,0.00136156,0.0,0 STARLINK-5480,1 55664U 23021AN  23067.91667824  .00136156  00000-0  11197-2 0  9998,2 55664  70.0005  96.0932 0003404 262.1717 177.1990 15.69840331  1304,6737.491,91.729,361.649,357.062,0.0
55664.0,STARLINK-5480,PAYLOAD,2023-03-09 22:00:00,15.6984299,0.000342,70.0004,93.2815,256.6955,72.6714,0.0011673,0.0014207,0.0,0 STARLINK-5480,1 55664U 23021AN  23068.91667824  .00142070  00000-0  11673-2 0  9990,2 55664  70.0004  93.2815 0003420 256.6955  72.6714 15.69842990  3704,6737.483,91.729,361.652,357.044,0.0
55664.0,STARLINK-5480,PAYLOAD,2023-03-10 02:43:06,15.69922316,0.0003357,69.9996,92.7298,261.621,98.4605,2.1935e-05,2.425e-05,0.0,0 STARLINK-5480,1 55664U 23021AN  23069.11327070  .00002425  00000-0  21935-4 0  9992,2 55664  69.9996  92.7298 0003357 261.6210  98.4605 15.69922316  3738,6737.256,91.724,361.383,356.86,0.0
55664.0,STARLINK-5480,PAYLOAD,2023-03-10 18:00:38,15.6992493,0.0002833,70.0003,90.9368,287.3602,72.7283,7.8996e-05,9.296e-05,0.0,0 STARLINK-5480,1 55664U 23021AN  23069.75044426  .00009296  00000-0  78996-4 0  9995,2 55664  70.0003  90.9368 0002833 287.3602  72.7283 15.69924930  4143,6737.249,91.724,361.022,357.205,0.0
55664.0,STARLINK-5480,PAYLOAD,2023-03-11 03:11:08,15.69927551,0.0003386,70.0004,89.8622,263.5765,96.5045,7.4903e-05,8.804e-05,0.0,0 STARLINK-5480,1 55664U 23021AN  23070.13274106  .00008804  00000-0  74903-4 0  9997,2 55664  70.0004  89.8622 0003386 263.5765  96.5045 15.69927551  3897,6737.241,91.724,361.388,356.825,0.0
55664.0,STARLINK-5480,PAYLOAD,2023-03-11 12:21:39,15.69937683,0.0003279,70.0003,88.7874,265.8358,94.2462,8.1569e-05,9.612e-05,0.0,0 STARLINK-5480,1 55664U 23021AN  23070.51503858  .00009612  00000-0  81569-4 0  9992,2 55664  70.0003  88.7874 0003279 265.8358  94.2462 15.69937683  4264,6737.212,91.723,361.286,356.868,0.0
55664.0,STARLINK-5480,PAYLOAD,2023-03-12 03:39:11,15.69921559,0.0003057,70.0011,86.9968,271.0074,89.0772,2.7635e-05,3.111e-05,0.0,0 STARLINK-5480,1 55664U 23021AN  23071.15221105  .00003111  00000-0  27635-4 0  9997,2 55664  70.0011  86.9968 0003057 271.0074  89.0772 15.69921559  4053,6737.258,91.724,361.183,357.064,0.0
55664.0,STARLINK-5480,PAYLOAD,2023-03-12 12:49:41,15.69943843,0.0002923,70.0012,85.9197,270.9996,89.0865,0.00011126,0.00013196,0.0,0 STARLINK-5480,1 55664U 23021AN  23071.53450666  .00013196  00000-0  11126-3 0  9996,2 55664  70.0012  85.9197 0002923 270.9996  89.0865 15.69943843  4119,6737.195,91.723,361.029,357.09,0.0
55664.0,STARLINK-5480,PAYLOAD,2023-03-13 10:14:13,15.69922228,0.0002597,70.0029,83.4159,285.8132,74.2777,4.2481e-05,4.898e-05,0.0,0 STARLINK-5480,1 55664U 23021AN  23072.42654811  .00004898  00000-0  42481-4 0  9991,2 55664  70.0029  83.4159 0002597 285.8132  74.2777 15.69922228  4259,6737.257,91.724,360.871,357.372,0.0
55664.0,STARLINK-5480,PAYLOAD,2023-03-14 10:42:15,15.69933874,0.0003311,70.003,80.5501,270.8024,89.2792,4.2928e-05,4.954e-05,0.0,0 STARLINK-5480,1 55664U 23021AN  23073.44600920  .00004954  00000-0  42928-4 0  9995,2 55664  70.0030  80.5501 0003311 270.8024  89.2792 15.69933874  4419,6737.223,91.724,361.319,356.857,0.0
55664.0,STARLINK-5480,PAYLOAD,2023-03-15 09:38:31,15.6992843,0.0003233,70.0001,77.862,263.6808,96.4019,1.4296e-05,1.507e-05,0.0,0 STARLINK-5480,1 55664U 23021AN  23074.40175874  .00001507  00000-0  14296-4 0  9995,2 55664  70.0001  77.8620 0003233 263.6808  96.4019 15.69928430  4561,6737.239,91.724,361.282,356.926,0.0
55664.0,STARLINK-5480,PAYLOAD,2023-03-15 12:42:01,15.69944845,0.000348,70.0007,77.5024,264.0178,96.0621,4.2114e-05,4.858e-05,0.0,0 STARLINK-5480,1 55664U 23021AN  23074.52918254  .00004858  00000-0  42114-4 0  9997,2 55664  70.0007  77.5024 0003480 264.0178  96.0621 15.69944845  4890,6737.192,91.723,361.401,356.712,0.0
55664.0,STARLINK-5480,PAYLOAD,2023-03-16 02:27:50,15.69896769,0.0002898,70.003,75.8923,277.2937,82.7929,-5.1238e-05,-6.361e-05,0.0,0 STARLINK-5480,1 55664U 23021AN  23075.10266423 -.00006361  00000-0 -51238-4 0  9996,2 55664  70.0030  75.8923 0002898 277.2937  82.7929 15.69896769  4676,6737.329,91.726,361.147,357.242,0.0
55664.0,STARLINK-5480,PAYLOAD,2023-03-16 11:38:18,15.69948375,0.0003719,69.9993,74.8171,265.4085,94.6686,2.9205e-05,3.304e-05,0.0,0 STARLINK-5480,1 55664U 23021AN  23075.48493136  .00003304  00000-0  29205-4 0  9991,2 55664  69.9993  74.8171 0003719 265.4085  94.6686 15.69948375  4731,6737.182,91.723,361.552,356.541,0.0
55664.0,STARLINK-5480,PAYLOAD,2023-03-17 02:55:51,15.6991196,0.000306,69.9986,73.0252,265.4622,94.6224,-2.5492e-06,-5.19e-06,0.0,0 STARLINK-5480,1 55664U 23021AN  23076.12212231 -.00000519  00000-0 -25492-5 0  9990,2 55664  69.9986  73.0252 0003060 265.4622  94.6224 15.69911960  4839,6737.286,91.725,361.212,357.089,0.0
55664.0,STARLINK-5480,PAYLOAD,2023-03-17 12:06:20,15.69933651,0.0003441,69.9988,71.9485,270.1937,89.8864,2.084e-05,2.295e-05,0.0,0 STARLINK-5480,1 55664U 23021AN  23076.50440840  .00002295  00000-0  20840-4 0  9993,2 55664  69.9988  71.9485 0003441 270.1937  89.8864 15.69933651  5200,6737.224,91.724,361.407,356.771,0.0
55664.0,STARLINK-5480,PAYLOAD,2023-03-17 16:41:36,15.69926781,0.000356,69.999,71.4118,269.2581,90.8207,-8.7908e-06,-1.27e-05,0.0,0 STARLINK-5480,1 55664U 23021AN  23076.69556452 -.00001270  00000-0 -87908-5 0  9993,2 55664  69.9990  71.4118 0003560 269.2581  90.8207 15.69926781  4924,6737.243,91.724,361.507,356.71,0.0
55664.0,STARLINK-5480,PAYLOAD,2023-03-18 00:20:22,15.69912011,0.0003254,69.9994,70.5167,272.9541,87.1283,3.7501e-05,4.296e-05,0.0,0 STARLINK-5480,1 55664U 23021AN  23077.01415470  .00004296  00000-0  37501-4 0  9996,2 55664  69.9994  70.5167 0003254 272.9541  87.1283 15.69912011  4978,6737.286,91.725,361.343,356.958,0.0
55664.0,STARLINK-5480,PAYLOAD,2023-03-18 17:09:38,15.69942738,0.00033,69.9981,68.5464,279.3735,80.7087,-1.1634e-05,-1.612e-05,0.0,0 STARLINK-5480,1 55664U 23021AN  23077.71502720 -.00001612  00000-0 -11634-4 0  9998,2 55664  69.9981  68.5464 0003300 279.3735  80.7087 15.69942738  5082,6737.198,91.723,361.286,356.84,0.0
55664.0,STARLINK-5480,PAYLOAD,2023-03-19 02:20:09,15.69937016,0.00036,69.9992,67.4727,272.6697,87.4086,-1.838e-05,-2.424e-05,0.0,0 STARLINK-5480,1 55664U 23021AN  23078.09733027 -.00002424  00000-0 -18380-4 0  9993,2 55664  69.9992  67.4727 0003600 272.6697  87.4086 15.69937016  5143,6737.214,91.723,361.505,356.654,0.0
55664.0,STARLINK-5480,PAYLOAD,2023-03-19 08:27:09,15.69938527,0.0003823,69.9978,66.7519,266.6252,93.4507,-3.9114e-08,-2.18e-06,0.0,0 STARLINK-5480,1 55664U 23021AN  23078.35219082 -.00000218  00000-0 -39114-7 0  9992,2 55664  69.9978  66.7519 0003823 266.6252  93.4507 15.69938527  5496,6737.21,91.723,361.651,356.499,0.0
